[{"OBJECT_NAME":"FENGYUN 1C DEB","OBJECT_ID":"1999-025BEX","EPOCH":"2026-03-16T03:38:38.585472","MEAN_MOTION":13.76311365,"ECCENTRICITY":0.03070737,"INCLINATION":98.7975,"RA_OF_ASC_NODE":195.7025,"ARG_OF_PERICENTER":204.744,"MEAN_ANOMALY":153.8716,"EPHEMERIS_TYPE":0,"CLASSIFICATION_TYPE":"U","NORAD_CAT_ID":31053,"ELEMENT_SET_NO":999,"REV_AT_EPOCH":94761,"BSTAR":0.0024779424,"MEAN_MOTION_DOT":3.379e-5,"MEAN_MOTION_DDOT":0},{"OBJECT_NAME":"FENGYUN 1C DEB","OBJECT_ID":"1999-025BEY","EPOCH":"2026-03-28T12:03:33.041664","MEAN_MOTION":14.12242015,"ECCENTRICITY":0.0009876,"INCLINATION":98.6872,"RA_OF_ASC_NODE":102.293,"ARG_OF_PERICENTER":175.313,"MEAN_ANOMALY":338.6616,"EPHEMERIS_TYPE":0,"CLASSIFICATION_TYPE":"U","NORAD_CAT_ID":31054,"ELEMENT_SET_NO":999,"REV_AT_EPOCH":98256,"BSTAR":0.0001693,"MEAN_MOTION_DOT":2.69e-6,"MEAN_MOTION_DDOT":0},{"OBJECT_NAME":"FENGYUN 1C DEB","OBJECT_ID":"1999-025BEZ","EPOCH":"2026-03-27T13:06:25.657920","MEAN_MOTION":14.10513192,"ECCENTRICITY":0.0023981,"INCLINATION":98.7461,"RA_OF_ASC_NODE":120.0041,"ARG_OF_PERICENTER":338.0731,"MEAN_ANOMALY":177.3061,"EPHEMERIS_TYPE":0,"CLASSIFICATION_TYPE":"U","NORAD_CAT_ID":31055,"ELEMENT_SET_NO":999,"REV_AT_EPOCH":97599,"BSTAR":0.00031128,"MEAN_MOTION_DOT":5.13e-6,"MEAN_MOTION_DDOT":0},{"OBJECT_NAME":"FENGYUN 1C DEB","OBJECT_ID":"1999-025BFA","EPOCH":"2026-03-28T05:23:21.445728","MEAN_MOTION":14.14469987,"ECCENTRICITY":0.00266248,"INCLINATION":98.6817,"RA_OF_ASC_NODE":71.7454,"ARG_OF_PERICENTER":41.0619,"MEAN_ANOMALY":335.0762,"EPHEMERIS_TYPE":0,"CLASSIFICATION_TYPE":"U","NORAD_CAT_ID":31056,"ELEMENT_SET_NO":999,"REV_AT_EPOCH":98309,"BSTAR":0.00035245466,"MEAN_MOTION_DOT":6.35e-6,"MEAN_MOTION_DDOT":0},{"OBJECT_NAME":"FENGYUN 1C DEB","OBJECT_ID":"1999-025BFB","EPOCH":"2026-03-25T21:57:09.622080","MEAN_MOTION":14.81145738,"ECCENTRICITY":0.0133121,"INCLINATION":99.2396,"RA_OF_ASC_NODE":144.9759,"ARG_OF_PERICENTER":289.7465,"MEAN_ANOMALY":68.9427,"EPHEMERIS_TYPE":0,"CLASSIFICATION_TYPE":"U","NORAD_CAT_ID":31057,"ELEMENT_SET_NO":999,"REV_AT_EPOCH":63479,"BSTAR":0.00060645,"MEAN_MOTION_DOT":5.415e-5,"MEAN_MOTION_DDOT":0},{"OBJECT_NAME":"FENGYUN 1C DEB","OBJECT_ID":"1999-025BFC","EPOCH":"2026-03-25T15:50:24.830304","MEAN_MOTION":14.78767384,"ECCENTRICITY":0.00905525,"INCLINATION":99.579,"RA_OF_ASC_NODE":58.0857,"ARG_OF_PERICENTER":148.8843,"MEAN_ANOMALY":211.777,"EPHEMERIS_TYPE":0,"CLASSIFICATION_TYPE":"U","NORAD_CAT_ID":31058,"ELEMENT_SET_NO":999,"REV_AT_EPOCH":1013,"BSTAR":0.00092405011,"MEAN_MOTION_DOT":7.204e-5,"MEAN_MOTION_DDOT":0},{"OBJECT_NAME":"FENGYUN 1C DEB","OBJECT_ID":"1999-025BFG","EPOCH":"2026-03-27T10:26:32.765280","MEAN_MOTION":13.75752152,"ECCENTRICITY":0.0172062,"INCLINATION":99.0049,"RA_OF_ASC_NODE":268.0865,"ARG_OF_PERICENTER":40.1941,"MEAN_ANOMALY":350.0167,"EPHEMERIS_TYPE":0,"CLASSIFICATION_TYPE":"U","NORAD_CAT_ID":31062,"ELEMENT_SET_NO":999,"REV_AT_EPOCH":95673,"BSTAR":0.0002182,"MEAN_MOTION_DOT":1.95e-6,"MEAN_MOTION_DDOT":0},{"OBJECT_NAME":"FENGYUN 1C DEB","OBJECT_ID":"1999-025BFJ","EPOCH":"2026-03-29T04:28:59.630592","MEAN_MOTION":14.2234258,"ECCENTRICITY":0.0241835,"INCLINATION":98.5875,"RA_OF_ASC_NODE":73.1428,"ARG_OF_PERICENTER":52.2034,"MEAN_ANOMALY":324.8039,"EPHEMERIS_TYPE":0,"CLASSIFICATION_TYPE":"U","NORAD_CAT_ID":31064,"ELEMENT_SET_NO":999,"REV_AT_EPOCH":98768,"BSTAR":0.00045936,"MEAN_MOTION_DOT":1.331e-5,"MEAN_MOTION_DDOT":0},{"OBJECT_NAME":"FENGYUN 1C DEB","OBJECT_ID":"1999-025BFK","EPOCH":"2026-03-28T07:35:18.911904","MEAN_MOTION":14.28681938,"ECCENTRICITY":0.0036316,"INCLINATION":98.459,"RA_OF_ASC_NODE":108.2396,"ARG_OF_PERICENTER":80.8052,"MEAN_ANOMALY":279.7235,"EPHEMERIS_TYPE":0,"CLASSIFICATION_TYPE":"U","NORAD_CAT_ID":31065,"ELEMENT_SET_NO":999,"REV_AT_EPOCH":66085,"BSTAR":0.00083423,"MEAN_MOTION_DOT":2.07e-5,"MEAN_MOTION_DDOT":0},{"OBJECT_NAME":"FENGYUN 1C DEB","OBJECT_ID":"1999-025BFN","EPOCH":"2026-03-20T15:45:53.587008","MEAN_MOTION":14.09296569,"ECCENTRICITY":0.01638577,"INCLINATION":98.642,"RA_OF_ASC_NODE":62.83,"ARG_OF_PERICENTER":200.0544,"MEAN_ANOMALY":159.4139,"EPHEMERIS_TYPE":0,"CLASSIFICATION_TYPE":"U","NORAD_CAT_ID":31068,"ELEMENT_SET_NO":999,"REV_AT_EPOCH":97734,"BSTAR":0.00019097482,"MEAN_MOTION_DOT":3.34e-6,"MEAN_MOTION_DDOT":0},{"OBJECT_NAME":"FENGYUN 1C DEB","OBJECT_ID":"1999-025BFP","EPOCH":"2026-03-28T17:48:09.293472","MEAN_MOTION":14.58066079,"ECCENTRICITY":0.0103302,"INCLINATION":99.1107,"RA_OF_ASC_NODE":262.9305,"ARG_OF_PERICENTER":116.6142,"MEAN_ANOMALY":244.5682,"EPHEMERIS_TYPE":0,"CLASSIFICATION_TYPE":"U","NORAD_CAT_ID":31069,"ELEMENT_SET_NO":999,"REV_AT_EPOCH":226,"BSTAR":0.00088627,"MEAN_MOTION_DOT":4.332e-5,"MEAN_MOTION_DDOT":0},{"OBJECT_NAME":"FENGYUN 1C DEB","OBJECT_ID":"1999-025BFR","EPOCH":"2026-03-28T23:17:53.886912","MEAN_MOTION":14.53708377,"ECCENTRICITY":0.0053854,"INCLINATION":99.0291,"RA_OF_ASC_NODE":178.9335,"ARG_OF_PERICENTER":322.5852,"MEAN_ANOMALY":37.1597,"EPHEMERIS_TYPE":0,"CLASSIFICATION_TYPE":"U","NORAD_CAT_ID":31071,"ELEMENT_SET_NO":999,"REV_AT_EPOCH":67037,"BSTAR":0.00092944,"MEAN_MOTION_DOT":3.915e-5,"MEAN_MOTION_DDOT":0},{"OBJECT_NAME":"FENGYUN 1C DEB","OBJECT_ID":"1999-025BFS","EPOCH":"2026-03-28T12:21:28.453824","MEAN_MOTION":14.25979336,"ECCENTRICITY":0.02092114,"INCLINATION":99.3303,"RA_OF_ASC_NODE":104.7641,"ARG_OF_PERICENTER":155.445,"MEAN_ANOMALY":205.6867,"EPHEMERIS_TYPE":0,"CLASSIFICATION_TYPE":"U","NORAD_CAT_ID":31072,"ELEMENT_SET_NO":999,"REV_AT_EPOCH":98150,"BSTAR":0.00046719471,"MEAN_MOTION_DOT":1.349e-5,"MEAN_MOTION_DDOT":0},{"OBJECT_NAME":"FENGYUN 1C DEB","OBJECT_ID":"1999-025BFT","EPOCH":"2026-03-28T13:30:02.335392","MEAN_MOTION":14.25438566,"ECCENTRICITY":0.0043677,"INCLINATION":99.2157,"RA_OF_ASC_NODE":307.582,"ARG_OF_PERICENTER":342.9474,"MEAN_ANOMALY":17.0233,"EPHEMERIS_TYPE":0,"CLASSIFICATION_TYPE":"U","NORAD_CAT_ID":31073,"ELEMENT_SET_NO":999,"REV_AT_EPOCH":98590,"BSTAR":0.0011311,"MEAN_MOTION_DOT":2.649e-5,"MEAN_MOTION_DDOT":0},{"OBJECT_NAME":"FENGYUN 1C DEB","OBJECT_ID":"1999-025BFU","EPOCH":"2026-03-28T17:15:39.309408","MEAN_MOTION":14.15160056,"ECCENTRICITY":0.0087136,"INCLINATION":98.9595,"RA_OF_ASC_NODE":8.0996,"ARG_OF_PERICENTER":324.4089,"MEAN_ANOMALY":35.1292,"EPHEMERIS_TYPE":0,"CLASSIFICATION_TYPE":"U","NORAD_CAT_ID":31074,"ELEMENT_SET_NO":999,"REV_AT_EPOCH":97078,"BSTAR":0.001988494,"MEAN_MOTION_DOT":3.961e-5,"MEAN_MOTION_DDOT":0},{"OBJECT_NAME":"FENGYUN 1C DEB","OBJECT_ID":"1999-025BFY","EPOCH":"2026-03-26T10:05:05.182368","MEAN_MOTION":14.2233888,"ECCENTRICITY":0.01159939,"INCLINATION":98.8495,"RA_OF_ASC_NODE":151.3738,"ARG_OF_PERICENTER":209.9688,"MEAN_ANOMALY":215.0873,"EPHEMERIS_TYPE":0,"CLASSIFICATION_TYPE":"U","NORAD_CAT_ID":31078,"ELEMENT_SET_NO":999,"REV_AT_EPOCH":98366,"BSTAR":0.00050129807,"MEAN_MOTION_DOT":1.149e-5,"MEAN_MOTION_DDOT":0},{"OBJECT_NAME":"FENGYUN 1C DEB","OBJECT_ID":"1999-025BGB","EPOCH":"2026-03-28T19:08:01.021056","MEAN_MOTION":14.06321613,"ECCENTRICITY":0.00471478,"INCLINATION":98.7652,"RA_OF_ASC_NODE":105.9104,"ARG_OF_PERICENTER":294.0221,"MEAN_ANOMALY":244.8903,"EPHEMERIS_TYPE":0,"CLASSIFICATION_TYPE":"U","NORAD_CAT_ID":31081,"ELEMENT_SET_NO":999,"REV_AT_EPOCH":97951,"BSTAR":0.00017155117,"MEAN_MOTION_DOT":2.43e-6,"MEAN_MOTION_DDOT":0},{"OBJECT_NAME":"FENGYUN 1C DEB","OBJECT_ID":"1999-025BGD","EPOCH":"2026-03-28T06:54:16.975872","MEAN_MOTION":14.65462452,"ECCENTRICITY":0.0028185,"INCLINATION":98.6471,"RA_OF_ASC_NODE":214.8992,"ARG_OF_PERICENTER":340.9887,"MEAN_ANOMALY":48.5905,"EPHEMERIS_TYPE":0,"CLASSIFICATION_TYPE":"U","NORAD_CAT_ID":31083,"ELEMENT_SET_NO":999,"REV_AT_EPOCH":99254,"BSTAR":0.0026715,"MEAN_MOTION_DOT":0.00014521,"MEAN_MOTION_DDOT":0},{"OBJECT_NAME":"FENGYUN 1C DEB","OBJECT_ID":"1999-025BGF","EPOCH":"2026-03-29T01:47:58.576128","MEAN_MOTION":14.30385626,"ECCENTRICITY":0.0087853,"INCLINATION":98.9801,"RA_OF_ASC_NODE":297.3192,"ARG_OF_PERICENTER":68.658,"MEAN_ANOMALY":81.8618,"EPHEMERIS_TYPE":0,"CLASSIFICATION_TYPE":"U","NORAD_CAT_ID":31085,"ELEMENT_SET_NO":999,"REV_AT_EPOCH":99236,"BSTAR":0.00010072,"MEAN_MOTION_DOT":2.27e-6,"MEAN_MOTION_DDOT":0},{"OBJECT_NAME":"FENGYUN 1C DEB","OBJECT_ID":"1999-025BGH","EPOCH":"2026-03-28T19:50:45.856896","MEAN_MOTION":14.61313345,"ECCENTRICITY":0.01692146,"INCLINATION":98.0941,"RA_OF_ASC_NODE":110.9793,"ARG_OF_PERICENTER":318.7596,"MEAN_ANOMALY":222.6758,"EPHEMERIS_TYPE":0,"CLASSIFICATION_TYPE":"U","NORAD_CAT_ID":31087,"ELEMENT_SET_NO":999,"REV_AT_EPOCH":319,"BSTAR":0.00069497678,"MEAN_MOTION_DOT":4.152e-5,"MEAN_MOTION_DDOT":0},{"OBJECT_NAME":"FENGYUN 1C DEB","OBJECT_ID":"1999-025BGJ","EPOCH":"2026-03-27T04:04:51.380832","MEAN_MOTION":14.296064,"ECCENTRICITY":0.00305535,"INCLINATION":99.3981,"RA_OF_ASC_NODE":159.5376,"ARG_OF_PERICENTER":122.9293,"MEAN_ANOMALY":265.6142,"EPHEMERIS_TYPE":0,"CLASSIFICATION_TYPE":"U","NORAD_CAT_ID":31088,"ELEMENT_SET_NO":999,"REV_AT_EPOCH":98041,"BSTAR":0.0013425371,"MEAN_MOTION_DOT":3.405e-5,"MEAN_MOTION_DDOT":0},{"OBJECT_NAME":"FENGYUN 1C DEB","OBJECT_ID":"1999-025BGK","EPOCH":"2026-03-28T08:08:50.798112","MEAN_MOTION":13.88510397,"ECCENTRICITY":0.02041437,"INCLINATION":98.961,"RA_OF_ASC_NODE":230.2646,"ARG_OF_PERICENTER":284.8388,"MEAN_ANOMALY":102.4837,"EPHEMERIS_TYPE":0,"CLASSIFICATION_TYPE":"U","NORAD_CAT_ID":31089,"ELEMENT_SET_NO":999,"REV_AT_EPOCH":69525,"BSTAR":0.00050908108,"MEAN_MOTION_DOT":6.78e-6,"MEAN_MOTION_DDOT":0},{"OBJECT_NAME":"FENGYUN 1C DEB","OBJECT_ID":"1999-025BGL","EPOCH":"2026-03-28T19:19:50.556000","MEAN_MOTION":15.52937454,"ECCENTRICITY":0.00338312,"INCLINATION":98.9808,"RA_OF_ASC_NODE":221.1257,"ARG_OF_PERICENTER":130.6253,"MEAN_ANOMALY":229.7946,"EPHEMERIS_TYPE":0,"CLASSIFICATION_TYPE":"U","NORAD_CAT_ID":31090,"ELEMENT_SET_NO":999,"REV_AT_EPOCH":2472,"BSTAR":0.002514288,"MEAN_MOTION_DOT":0.00163142,"MEAN_MOTION_DDOT":0}]
